{"epoch":1784710044,"count":18256,"objects":[{"id":"32382","name":"RADARSAT 2","type":"PAYLOAD","l1":"1 32382U 07061A   26202.60341558  .00000099  00000-0  55382-4 0  9991","l2":"2 32382  98.5791 209.0450 0001342  85.6887 274.4449 14.29984452970874"}]}